ORBCOMM FM20            
1 25416U 98046D   25255.90754334  .00000478  00000+0  20573-3 0  9997
2 25416  44.9936 125.8032 0001684  20.2211 339.8703 14.37364227416882
ORBCOMM FM16            
1 25417U 98046E   25255.93700431  .00000804  00000+0  30299-3 0  9999
2 25417  44.9931 116.0662 0005247  25.6079 334.5028 14.39122143416893
ORBCOMM FM15            
1 25418U 98046F   25255.93499071  .00000715  00000+0  27662-3 0  9996
2 25418  44.9964 121.4845 0004960  24.8696 335.2391 14.38764189416881
ORBCOMM FM14            
1 25419U 98046G   25255.93038848  .00000745  00000+0  28432-3 0  9997
2 25419  44.9953 119.4876 0003738  22.3003 337.8008 14.39140727416855
ORBCOMM FM13            
1 25420U 98046H   25255.91321768  .00000644  00000+0  25836-3 0  9996
2 25420  44.9969 128.4101 0005877   3.1327 356.9557 14.37853784415860
ORBCOMM FM21            
1 25475U 98053A   25255.93996467  .00000653  00000+0  26317-3 0  9995
2 25475  45.0073 213.8813 0003592 306.8782  53.1737 14.37502911409870
ORBCOMM FM22            
1 25476U 98053B   25255.84289503  .00000818  00000+0  31085-3 0  9993
2 25476  45.0066 208.4750 0005340 308.8223  51.2148 14.38586648409895
ORBCOMM FM23            
1 25477U 98053C   25255.37317309  .00000764  00000+0  29876-3 0  9993
2 25477  45.0072 218.5620 0004633 301.4892  58.5503 14.37703450409948
